2017-071M               
1 43048U 17071M   17345.94809275  .00004265  00000-0  12413-3 0  9990
2 43048  51.6396 232.8029 0002950 351.4486   8.6447 15.37609670   793
